[{"OBJECT_NAME":"MANDRAKE 2 ABLE","OBJECT_ID":"2021-059AE","EPOCH":"2026-03-09T11:47:46.014720","MEAN_MOTION":15.50735817,"ECCENTRICITY":0.00047846,"INCLINATION":97.704,"RA_OF_ASC_NODE":250.976,"ARG_OF_PERICENTER":6.4336,"MEAN_ANOMALY":353.6976,"EPHEMERIS_TYPE":0,"CLASSIFICATION_TYPE":"U","NORAD_CAT_ID":48907,"ELEMENT_SET_NO":999,"REV_AT_EPOCH":26165,"BSTAR":0.00043383769,"MEAN_MOTION_DOT":0.00024904,"MEAN_MOTION_DDOT":0},{"OBJECT_NAME":"STARLINK-36693","OBJECT_ID":"2026-026X","EPOCH":"2026-03-09T22:00:01.999584","MEAN_MOTION":15.49113269,"ECCENTRICITY":7.243e-5,"INCLINATION":97.2856,"RA_OF_ASC_NODE":123.4955,"ARG_OF_PERICENTER":94.5259,"MEAN_ANOMALY":100.0824,"EPHEMERIS_TYPE":0,"CLASSIFICATION_TYPE":"U","NORAD_CAT_ID":67742,"ELEMENT_SET_NO":999,"REV_AT_EPOCH":548,"BSTAR":0.0017766358,"MEAN_MOTION_DOT":0.00097481,"MEAN_MOTION_DDOT":0}]
